{
  "norad_id": 45794,
  "name": "GAOFEN-9 03",
  "history": [
    {
      "epoch": "2026-03-28T22:27:37.159200Z",
      "apogee_km": 481.07344781049414,
      "perigee_km": 464.7891435784586,
      "latitude_deg": 8.282075469478657e-05,
      "longitude_deg": 57.24741053276443,
      "height_km": 468.13416477023236,
      "semi_major_axis_km": 6851.068295694477,
      "eccentricity": 0.00118845,
      "inclination_deg": 97.5245,
      "raan_deg": 220.5014,
      "arg_perigee_deg": 14.2332,
      "mean_anomaly_deg": 345.9242,
      "mean_motion_rev_day": 15.30965192
    },
    {
      "epoch": "2026-03-29T04:44:05.669376Z",
      "apogee_km": 481.0569027561887,
      "perigee_km": 464.80479959962577,
      "latitude_deg": 1.403865478234856e-05,
      "longitude_deg": -36.86396085415652,
      "height_km": 468.1151794561735,
      "semi_major_axis_km": 6851.067851177907,
      "eccentricity": 0.0011861,
      "inclination_deg": 97.5248,
      "raan_deg": 220.7665,
      "arg_perigee_deg": 13.2063,
      "mean_anomaly_deg": 346.9486,
      "mean_motion_rev_day": 15.30965341
    },
    {
      "epoch": "2026-03-30T04:15:51.169248Z",
      "apogee_km": 480.8449200709929,
      "perigee_km": 464.7944986922539,
      "latitude_deg": 2.6637334553187497e-05,
      "longitude_deg": -29.77525893715182,
      "height_km": 468.002214176429,
      "semi_major_axis_km": 6850.956709381623,
      "eccentricity": 0.0011714,
      "inclination_deg": 97.5248,
      "raan_deg": 221.7611,
      "arg_perigee_deg": 9.5322,
      "mean_anomaly_deg": 350.6139,
      "mean_motion_rev_day": 15.31002596
    },
    {
      "epoch": "2026-03-30T07:24:05.068800Z",
      "apogee_km": 480.8207958848416,
      "perigee_km": 464.7876751302083,
      "latitude_deg": -6.7125596181898e-05,
      "longitude_deg": -76.82950126183643,
      "height_km": 467.9783927860056,
      "semi_major_axis_km": 6850.941235507525,
      "eccentricity": 0.00117014,
      "inclination_deg": 97.5248,
      "raan_deg": 221.8936,
      "arg_perigee_deg": 8.7601,
      "mean_anomaly_deg": 351.3841,
      "mean_motion_rev_day": 15.31007783
    },
    {
      "epoch": "2026-03-30T15:14:39.734304Z",
      "apogee_km": 480.7738772955281,
      "perigee_km": 464.74223479278044,
      "latitude_deg": 5.908006620386631e-05,
      "longitude_deg": 165.53634390663163,
      "height_km": 467.9188054221452,
      "semi_major_axis_km": 6850.8950560441535,
      "eccentricity": 0.00117004,
      "inclination_deg": 97.5251,
      "raan_deg": 222.226,
      "arg_perigee_deg": 8.0576,
      "mean_anomaly_deg": 352.0851,
      "mean_motion_rev_day": 15.31023263
    },
    {
      "epoch": "2026-03-30T21:31:07.509216Z",
      "apogee_km": 480.7552749083334,
      "perigee_km": 464.77143928519035,
      "latitude_deg": 3.7112985828202294e-05,
      "longitude_deg": 71.42733858524929,
      "height_km": 467.9261243991225,
      "semi_major_axis_km": 6850.900357096762,
      "eccentricity": 0.00116655,
      "inclination_deg": 97.5252,
      "raan_deg": 222.4904,
      "arg_perigee_deg": 6.8367,
      "mean_anomaly_deg": 353.3031,
      "mean_motion_rev_day": 15.31021486
    },
    {
      "epoch": "2026-03-31T19:28:43.506624Z",
      "apogee_km": 480.6444292976894,
      "perigee_km": 464.6930132562684,
      "latitude_deg": -7.631222269656468e-05,
      "longitude_deg": 102.05420042127629,
      "height_km": 467.8117419209822,
      "semi_major_axis_km": 6850.805721276978,
      "eccentricity": 0.0011642,
      "inclination_deg": 97.5257,
      "raan_deg": 223.4191,
      "arg_perigee_deg": 4.0489,
      "mean_anomaly_deg": 356.0843,
      "mean_motion_rev_day": 15.3105321
    },
    {
      "epoch": "2026-04-01T20:34:31.933056Z",
      "apogee_km": 480.53019570657943,
      "perigee_km": 464.6775812905935,
      "latitude_deg": 2.2190268034574478e-05,
      "longitude_deg": 85.63302366079259,
      "height_km": 467.77766829159106,
      "semi_major_axis_km": 6850.740888498586,
      "eccentricity": 0.001157,
      "inclination_deg": 97.5259,
      "raan_deg": 224.4804,
      "arg_perigee_deg": 0.1778,
      "mean_anomaly_deg": 359.9465,
      "mean_motion_rev_day": 15.31074944
    },
    {
      "epoch": "2026-04-02T20:06:11.871360Z",
      "apogee_km": 480.3641651063954,
      "perigee_km": 464.63647195051726,
      "latitude_deg": -7.294300749393369e-05,
      "longitude_deg": 92.74487652578668,
      "height_km": 467.7541476861063,
      "semi_major_axis_km": 6850.637318528456,
      "eccentricity": 0.0011479,
      "inclination_deg": 97.5265,
      "raan_deg": 225.4749,
      "arg_perigee_deg": 356.2929,
      "mean_anomaly_deg": 3.8224,
      "mean_motion_rev_day": 15.31109665
    },
    {
      "epoch": "2026-04-02T21:40:18.530400Z",
      "apogee_km": 480.3654400281257,
      "perigee_km": 464.6444498800074,
      "latitude_deg": 5.361451991623097e-05,
      "longitude_deg": 69.21869726342436,
      "height_km": 467.7642919096806,
      "semi_major_axis_km": 6850.641944954066,
      "eccentricity": 0.00114741,
      "inclination_deg": 97.5263,
      "raan_deg": 225.5409,
      "arg_perigee_deg": 356.0611,
      "mean_anomaly_deg": 4.0538,
      "mean_motion_rev_day": 15.31108114
    },
    {
      "epoch": "2026-04-03T21:11:56.167008Z",
      "apogee_km": 480.22543458536074,
      "perigee_km": 464.52816726192395,
      "latitude_deg": 3.250905227551775e-05,
      "longitude_deg": 76.3402562996464,
      "height_km": 467.6919794539954,
      "semi_major_axis_km": 6850.5138009236425,
      "eccentricity": 0.0011457,
      "inclination_deg": 97.5271,
      "raan_deg": 226.5355,
      "arg_perigee_deg": 352.815,
      "mean_anomaly_deg": 7.2925,
      "mean_motion_rev_day": 15.31151075
    },
    {
      "epoch": "2026-04-04T06:36:34.814880Z",
      "apogee_km": 480.0824337620679,
      "perigee_km": 464.6237548250856,
      "latitude_deg": 1.5777592512078713e-05,
      "longitude_deg": -64.80925974709778,
      "height_km": 467.8084635687126,
      "semi_major_axis_km": 6850.4900942935765,
      "eccentricity": 0.00112829,
      "inclination_deg": 97.5275,
      "raan_deg": 226.9335,
      "arg_perigee_deg": 351.6349,
      "mean_anomaly_deg": 8.4702,
      "mean_motion_rev_day": 15.31159023
    },
    {
      "epoch": "2026-04-05T13:58:41.512224Z",
      "apogee_km": 479.99468088201047,
      "perigee_km": 464.47748978403797,
      "latitude_deg": 3.077308932010997e-05,
      "longitude_deg": -175.29812867845914,
      "height_km": 467.7918892008542,
      "semi_major_axis_km": 6850.373085333024,
      "eccentricity": 0.00113258,
      "inclination_deg": 97.527,
      "raan_deg": 228.2608,
      "arg_perigee_deg": 346.6176,
      "mean_anomaly_deg": 13.4763,
      "mean_motion_rev_day": 15.31198253
    },
    {
      "epoch": "2026-04-05T20:15:06.562080Z",
      "apogee_km": 479.9732433578556,
      "perigee_km": 464.46677523161634,
      "latitude_deg": -1.9598901554569847e-05,
      "longitude_deg": 90.60435445042128,
      "height_km": 467.8195540114164,
      "semi_major_axis_km": 6850.357009294736,
      "eccentricity": 0.0011318,
      "inclination_deg": 97.5274,
      "raan_deg": 228.5253,
      "arg_perigee_deg": 345.446,
      "mean_anomaly_deg": 14.6453,
      "mean_motion_rev_day": 15.31203643
    },
    {
      "epoch": "2026-04-06T07:13:50.265408Z",
      "apogee_km": 479.8691124561874,
      "perigee_km": 464.5403767479611,
      "latitude_deg": 1.2947824037425564e-05,
      "longitude_deg": -74.06453161451151,
      "height_km": 467.96067698514105,
      "semi_major_axis_km": 6850.341744602074,
      "eccentricity": 0.00111883,
      "inclination_deg": 97.5278,
      "raan_deg": 228.9894,
      "arg_perigee_deg": 343.4919,
      "mean_anomaly_deg": 16.5956,
      "mean_motion_rev_day": 15.31208761
    }
  ]
}